{
  "norad_id": 47652,
  "name": "STARLINK-2036",
  "history": [
    {
      "epoch": "2026-03-28T22:03:29.153088",
      "apogee_km": 430.64068218032935,
      "perigee_km": 427.3691697707063,
      "latitude_deg": 52.020536724564934,
      "longitude_deg": 113.43239232013002,
      "semi_major_axis_km": 6807.141925975518,
      "eccentricity": 0.0002403,
      "inclination_deg": 53.1615,
      "raan_deg": 333.2876,
      "arg_perigee_deg": 177.9903,
      "mean_anomaly_deg": 182.1114,
      "mean_motion_rev_day": 15.45808011
    }
  ]
}