{"fetched_at":"2026-03-30T06:02:59Z","count":15439,"tles":[{"name":"STARLINK-2036","line1":"1 47652U 21012AJ  26087.91908742  .00078562  00000+0  15879-2 0  9992","line2":"2 47652  53.1615 333.2876 0002403 177.9903 182.1114 15.45808011283053","category":"Starlink"}]}